{"type": "FeatureCollection", "features": [ {"type": "Feature", "properties": {"norad_id": 66509, "name": "STARLINK-35598", "group": "last-30-days", "lat": -32.35801080479048, "lon": 34.450604035607796, "alt_km": 372.80567656650146, "timestamp": "2025-12-04T19:33:58.448775+00:00", "meta": {"OBJECT_NAME": "STARLINK-35598", "OBJECT_ID": "2025-263AA", "EPOCH": "2025-12-04T08:00:01.999872", "MEAN_MOTION": 15.678459, "ECCENTRICITY": 0.00017012, "INCLINATION": 42.999, "RA_OF_ASC_NODE": 174.4987, "ARG_OF_PERICENTER": 266.672, "MEAN_ANOMALY": 123.5606, "EPHEMERIS_TYPE": 0, "CLASSIFICATION_TYPE": "U", "NORAD_CAT_ID": 66509, "ELEMENT_SET_NO": 999, "REV_AT_EPOCH": 428, "BSTAR": -0.019929474, "MEAN_MOTION_DOT": -0.01990823, "MEAN_MOTION_DDOT": 0}, "tle": {"line1": "1 66509U 25263AA  25338.33335648 -.01990823  00000+0 -19929-1 0  9994", "line2": "2 66509  42.9990 174.4987 0001701 266.6720 123.5606 15.67845900  4281"}}, "geometry": {"type": "Point", "coordinates": [34.450604035607796, -32.35801080479048]}}, {"type": "Feature", "properties": {"norad_id": 66510, "name": "STARLINK-35600", "group": "last-30-days", "lat": -29.35611231291746, "lon": 28.7546553496716, "alt_km": 372.72235045823254, "timestamp": "2025-12-04T19:33:58.448783+00:00", "meta": {"OBJECT_NAME": "STARLINK-35600", "OBJECT_ID": "2025-263AB", "EPOCH": "2025-12-04T08:00:01.999872", "MEAN_MOTION": 15.67844203, "ECCENTRICITY": 0.0001738, "INCLINATION": 42.9992, "RA_OF_ASC_NODE": 174.5136, "ARG_OF_PERICENTER": 267.9875, "MEAN_ANOMALY": 116.4949, "EPHEMERIS_TYPE": 0, "CLASSIFICATION_TYPE": "U", "NORAD_CAT_ID": 66510, "ELEMENT_SET_NO": 999, "REV_AT_EPOCH": 428, "BSTAR": -0.019906374, "MEAN_MOTION_DOT": -0.01988699, "MEAN_MOTION_DDOT": 0}, "tle": {"line1": "1 66510U 25263AB  25338.33335648 -.01988699  00000+0 -19906-1 0  9999", "line2": "2 66510  42.9992 174.5136 0001738 267.9875 116.4949 15.67844203  4283"}}, "geometry": {"type": "Point", "coordinates": [28.7546553496716, -29.35611231291746]}}, {"type": "Feature", "properties": {"norad_id": 66511, "name": "STARLINK-35444", "group": "last-30-days", "lat": -31.38566281902586, "lon": 32.512921244316026, "alt_km": 372.8346423586836, "timestamp": "2025-12-04T19:33:58.448794+00:00", "meta": {"OBJECT_NAME": "STARLINK-35444", "OBJECT_ID": "2025-263AC", "EPOCH": "2025-12-04T08:00:01.999872", "MEAN_MOTION": 15.67842996, "ECCENTRICITY": 0.00016868, "INCLINATION": 42.9991, "RA_OF_ASC_NODE": 174.5044, "ARG_OF_PERICENTER": 269.3956, "MEAN_ANOMALY": 118.922, "EPHEMERIS_TYPE": 0, "CLASSIFICATION_TYPE": "U", "NORAD_CAT_ID": 66511, "ELEMENT_SET_NO": 999, "REV_AT_EPOCH": 428, "BSTAR": -0.019888212, "MEAN_MOTION_DOT": -0.01986973, "MEAN_MOTION_DDOT": 0}, "tle": {"line1": "1 66511U 25263AC  25338.33335648 -.01986973  00000+0 -19888-1 0  9992", "line2": "2 66511  42.9991 174.5044 0001686 269.3956 118.9220 15.67842996  4285"}}, "geometry": {"type": "Point", "coordinates": [32.512921244316026, -31.38566281902586]}}, {"type": "Feature", "properties": {"norad_id": 66512, "name": "STARLINK-35366", "group": "last-30-days", "lat": -33.30044670270579, "lon": 36.43173713593129, "alt_km": 372.8633887448141, "timestamp": "2025-12-04T19:33:58.448802+00:00", "meta": {"OBJECT_NAME": "STARLINK-35366", "OBJECT_ID": "2025-263AD", "EPOCH": "2025-12-04T08:00:01.999872", "MEAN_MOTION": 15.67844145, "ECCENTRICITY": 0.00016575, "INCLINATION": 42.9992, "RA_OF_ASC_NODE": 174.4943, "ARG_OF_PERICENTER": 267.2249, "MEAN_ANOMALY": 124.9264, "EPHEMERIS_TYPE": 0, "CLASSIFICATION_TYPE": "U", "NORAD_CAT_ID": 66512, "ELEMENT_SET_NO": 999, "REV_AT_EPOCH": 428, "BSTAR": -0.019906892, "MEAN_MOTION_DOT": -0.01988675, "MEAN_MOTION_DDOT": 0}, "tle": {"line1": "1 66512U 25263AD  25338.33335648 -.01988675  00000+0 -19907-1 0  9996", "line2": "2 66512  42.9992 174.4943 0001657 267.2249 124.9264 15.67844145  4287"}}, "geometry": {"type": "Point", "coordinates": [36.43173713593129, -33.30044670270579]}}, {"type": "Feature", "properties": {"norad_id": 66513, "name": "STARLINK-35692", "group": "last-30-days", "lat": -30.38423877514898, "lon": 30.613650783198313, "alt_km": 372.79442077280146, "timestamp": "2025-12-04T19:33:58.448811+00:00", "meta": {"OBJECT_NAME": "STARLINK-35692", "OBJECT_ID": "2025-263AE", "EPOCH": "2025-12-04T08:00:01.999872", "MEAN_MOTION": 15.67843072, "ECCENTRICITY": 0.0001714, "INCLINATION": 42.9992, "RA_OF_ASC_NODE": 174.5088, "ARG_OF_PERICENTER": 269.509, "MEAN_ANOMALY": 116.8909, "EPHEMERIS_TYPE": 0, "CLASSIFICATION_TYPE": "U", "NORAD_CAT_ID": 66513, "ELEMENT_SET_NO": 999, "REV_AT_EPOCH": 428, "BSTAR": -0.019886912, "MEAN_MOTION_DOT": -0.01986886, "MEAN_MOTION_DDOT": 0}, "tle": {"line1": "1 66513U 25263AE  25338.33335648 -.01986886  00000+0 -19887-1 0  9996", "line2": "2 66513  42.9992 174.5088 0001714 269.5090 116.8909 15.67843072  4286"}}, "geometry": {"type": "Point", "coordinates": [30.613650783198313, -30.38423877514898]}}, {"type": "Feature", "properties": {"norad_id": 66514, "name": "SENTINEL-6B", "group": "last-30-days", "lat": -30.690311525309, "lon": 14.2641070687267, "alt_km": 1317.725435000154, "timestamp": "2025-12-04T19:33:58.448820+00:00", "meta": {"OBJECT_NAME": "SENTINEL-6B", "OBJECT_ID": "2025-264A", "EPOCH": "2025-12-03T21:55:25.872096", "MEAN_MOTION": 12.85877574, "ECCENTRICITY": 0.0011544, "INCLINATION": 66.039, "RA_OF_ASC_NODE": 180.8509, "ARG_OF_PERICENTER": 268.5805, "MEAN_ANOMALY": 91.389, "EPHEMERIS_TYPE": 0, "CLASSIFICATION_TYPE": "U", "NORAD_CAT_ID": 66514, "ELEMENT_SET_NO": 999, "REV_AT_EPOCH": 215, "BSTAR": 0.00031328, "MEAN_MOTION_DOT": 1.5e-07, "MEAN_MOTION_DDOT": 0}, "tle": {"line1": "1 66514U 25264A   25337.91349389  .00000015  00000+0  31328-3 0  9992", "line2": "2 66514  66.0390 180.8509 0011544 268.5805  91.3890 12.85877574  2150"}}, "geometry": {"type": "Point", "coordinates": [14.2641070687267, -30.690311525309]}}, {"type": "Feature", "properties": {"norad_id": 66516, "name": "STARLINK-35924", "group": "last-30-days", "lat": -41.345729724623354, "lon": 30.072590313381966, "alt_km": 353.9941875858185, "timestamp": "2025-12-04T19:33:58.448830+00:00", "meta": {"OBJECT_NAME": "STARLINK-35924", "OBJECT_ID": "2025-265A", "EPOCH": "2025-12-04T08:00:01.999872", "MEAN_MOTION": 15.74437224, "ECCENTRICITY": 0.0001362, "INCLINATION": 42.9995, "RA_OF_ASC_NODE": 103.7803, "ARG_OF_PERICENTER": 276.3861, "MEAN_ANOMALY": 154.906, "EPHEMERIS_TYPE": 0, "CLASSIFICATION_TYPE": "U", "NORAD_CAT_ID": 66516, "ELEMENT_SET_NO": 999, "REV_AT_EPOCH": 362, "BSTAR": -0.014201421, "MEAN_MOTION_DOT": -0.01854314, "MEAN_MOTION_DDOT": 0}, "tle": {"line1": "1 66516U 25265A   25338.33335648 -.01854314  00000+0 -14201-1 0  9996", "line2": "2 66516  42.9995 103.7803 0001362 276.3861 154.9060 15.74437224  3626"}}, "geometry": {"type": "Point", "coordinates": [30.072590313381966, -41.345729724623354]}}, {"type": "Feature", "properties": {"norad_id": 66517, "name": "STARLINK-35937", "group": "last-30-days", "lat": -40.88886899249757, "lon": 32.54148951810139, "alt_km": 354.0175781929065, "timestamp": "2025-12-04T19:33:58.448839+00:00", "meta": {"OBJECT_NAME": "STARLINK-35937", "OBJECT_ID": "2025-265B", "EPOCH": "2025-12-04T08:00:01.999872", "MEAN_MOTION": 15.74424489, "ECCENTRICITY": 0.00012944, "INCLINATION": 42.9995, "RA_OF_ASC_NODE": 103.7761, "ARG_OF_PERICENTER": 266.6188, "MEAN_ANOMALY": 166.5753, "EPHEMERIS_TYPE": 0, "CLASSIFICATION_TYPE": "U", "NORAD_CAT_ID": 66517, "ELEMENT_SET_NO": 999, "REV_AT_EPOCH": 364, "BSTAR": -0.013897673, "MEAN_MOTION_DOT": -0.01818793, "MEAN_MOTION_DDOT": 0}, "tle": {"line1": "1 66517U 25265B   25338.33335648 -.01818793  00000+0 -13898-1 0  9999", "line2": "2 66517  42.9995 103.7761 0001294 266.6188 166.5753 15.74424489  3647"}}, "geometry": {"type": "Point", "coordinates": [32.54148951810139, -40.88886899249757]}}, {"type": "Feature", "properties": {"norad_id": 66518, "name": "STARLINK-35962", "group": "last-30-days", "lat": -40.38109681946179, "lon": 34.9685373092911, "alt_km": 353.74784029075, "timestamp": "2025-12-04T19:33:58.448848+00:00", "meta": {"OBJECT_NAME": "STARLINK-35962", "OBJECT_ID": "2025-265C", "EPOCH": "2025-12-04T08:00:01.999872", "MEAN_MOTION": 15.74415421, "ECCENTRICITY": 0.00015686, "INCLINATION": 42.9995, "RA_OF_ASC_NODE": 103.7711, "ARG_OF_PERICENTER": 271.6569, "MEAN_ANOMALY": 163.4541, "EPHEMERIS_TYPE": 0, "CLASSIFICATION_TYPE": "U", "NORAD_CAT_ID": 66518, "ELEMENT_SET_NO": 999, "REV_AT_EPOCH": 364, "BSTAR": -0.013761353, "MEAN_MOTION_DOT": -0.01802806, "MEAN_MOTION_DDOT": 0}, "tle": {"line1": "1 66518U 25265C   25338.33335648 -.01802806  00000+0 -13761-1 0  9997", "line2": "2 66518  42.9995 103.7711 0001568 271.6569 163.4541 15.74415421  3643"}}, "geometry": {"type": "Point", "coordinates": [34.9685373092911, -40.38109681946179]}}, {"type": "Feature", "properties": {"norad_id": 66519, "name": "STARLINK-35931", "group": "last-30-days", "lat": -39.82274015567767, "lon": 37.359473339301495, "alt_km": 353.8568159710003, "timestamp": "2025-12-04T19:33:58.448858+00:00", "meta": {"OBJECT_NAME": "STARLINK-35931", "OBJECT_ID": "2025-265D", "EPOCH": "2025-12-04T08:00:01.999872", "MEAN_MOTION": 15.74421881, "ECCENTRICITY": 0.00014523, "INCLINATION": 42.9996, "RA_OF_ASC_NODE": 103.766, "ARG_OF_PERICENTER": 269.3901, "MEAN_ANOMALY": 167.6391, "EPHEMERIS_TYPE": 0, "CLASSIFICATION_TYPE": "U", "NORAD_CAT_ID": 66519, "ELEMENT_SET_NO": 999, "REV_AT_EPOCH": 364, "BSTAR": -0.013860313, "MEAN_MOTION_DOT": -0.01814474, "MEAN_MOTION_DDOT": 0}, "tle": {"line1": "1 66519U 25265D   25338.33335648 -.01814474  00000+0 -13860-1 0  9992", "line2": "2 66519  42.9996 103.7660 0001452 269.3901 167.6391 15.74421881  3640"}}, "geometry": {"type": "Point", "coordinates": [37.359473339301495, -39.82274015567767]}}]}